{
  "norad_id": 66885,
  "name": "STARLINK-35954",
  "history": [
    {
      "epoch": "2026-03-28T20:17:50.327232Z",
      "apogee_km": 475.73508995618613,
      "perigee_km": 474.7457363928197,
      "latitude_deg": 4.782458140863157e-05,
      "longitude_deg": 164.71262189850208,
      "height_km": 476.14313722567937,
      "semi_major_axis_km": 6853.377413174502,
      "eccentricity": 7.218e-05,
      "inclination_deg": 53.1584,
      "raan_deg": 295.4326,
      "arg_perigee_deg": 90.4749,
      "mean_anomaly_deg": 269.6335,
      "mean_motion_rev_day": 15.30191512
    },
    {
      "epoch": "2026-03-28T23:25:57.114336Z",
      "apogee_km": 475.7250067424866,
      "perigee_km": 474.8093919414541,
      "latitude_deg": 1.976157227879333e-05,
      "longitude_deg": 116.9501624840115,
      "height_km": 476.2179346896765,
      "semi_major_axis_km": 6853.4041993419705,
      "eccentricity": 6.68e-05,
      "inclination_deg": 53.1583,
      "raan_deg": 294.8272,
      "arg_perigee_deg": 96.528,
      "mean_anomaly_deg": 263.5797,
      "mean_motion_rev_day": 15.30182541
    }
  ]
}